[{"OBJECT_NAME":"CARTOSAT-2A","OBJECT_ID":"2008-021A","EPOCH":"2026-03-10T00:17:01.509792","MEAN_MOTION":14.79100763,"ECCENTRICITY":0.00132764,"INCLINATION":97.7772,"RA_OF_ASC_NODE":121.0502,"ARG_OF_PERICENTER":75.3983,"MEAN_ANOMALY":284.87,"EPHEMERIS_TYPE":0,"CLASSIFICATION_TYPE":"U","NORAD_CAT_ID":32783,"ELEMENT_SET_NO":999,"REV_AT_EPOCH":96414,"BSTAR":9.5052975e-5,"MEAN_MOTION_DOT":6.55e-6,"MEAN_MOTION_DDOT":0},{"OBJECT_NAME":"FENGYUN 1C DEB","OBJECT_ID":"1999-025CMN","EPOCH":"2026-03-08T02:55:26.099904","MEAN_MOTION":14.79998797,"ECCENTRICITY":0.01585695,"INCLINATION":99.2491,"RA_OF_ASC_NODE":174.5116,"ARG_OF_PERICENTER":31.4432,"MEAN_ANOMALY":329.6136,"EPHEMERIS_TYPE":0,"CLASSIFICATION_TYPE":"U","NORAD_CAT_ID":31937,"ELEMENT_SET_NO":999,"REV_AT_EPOCH":67331,"BSTAR":0.0010230441,"MEAN_MOTION_DOT":9.525e-5,"MEAN_MOTION_DDOT":0}]
